AEROCUBE 6B             
1 40046U 14033AN  26095.40463595  .00010142  00000+0  83713-3 0  9995
2 40046  97.7145 262.8393 0036292 248.6960 111.0386 14.98669816635854
CANX-4                  
1 40055U 14034C   26095.59917711  .00001557  00000+0  20752-3 0  9994
2 40055  98.3227 328.2127 0011589 242.1840 117.8197 14.81133972633787
CANX-5                  
1 40056U 14034D   26095.59844500  .00001560  00000+0  20785-3 0  9990
2 40056  98.3229 328.2512 0011610 242.4079 117.5953 14.81150832624590
UKUBE-1                 
1 40074U 14037F   26095.88131004  .00011383  00000+0  65906-3 0  9991
2 40074  98.4248  91.6279 0002929  73.3050 286.8500 15.12420643637627
BRITE-PL2 (HEWELIUSZ)   
1 40119U 14049B   26095.86062317  .00003469  00000+0  32759-3 0  9998
2 40119  97.9007 207.3530 0013735 356.2200   3.8914 14.94332740630647
AEROCUBE 5C             
1 40965U 15058B   26095.47508229  .00003115  00000+0  28242-3 0  9992
2 40965  64.7657 128.7187 0129673  91.8408 269.7561 14.91041203354815
AEROCUBE 7              
1 40966U 15058C   26095.47455516  .00004698  00000+0  38391-3 0  9996
2 40966  64.7608 112.4628 0119562  90.7241 270.7574 14.95142609355083
FOX-1A (AO-85)          
1 40967U 15058D   26095.56577941  .00003083  00000+0  28427-3 0  9990
2 40967  64.7743 144.5904 0128307  85.1207 276.4540 14.90547430102749
SINOD-D 1               
1 40968U 15058E   26095.79535924  .00004522  00000+0  37085-3 0  9990
2 40968  64.7736 125.5086 0116772  82.0434 279.3914 14.95313665105839
SNAP-3 ALICE            
1 40970U 15058G   26095.87820712  .00088321  00000+0  16167-2 0  9990
2 40970  64.7562 351.3776 0032871  59.0505 301.3859 15.48238555105651
LMRST-SAT               
1 40971U 15058H   26095.83841376  .00002902  00000+0  26981-3 0  9993
2 40971  64.7746 139.9468 0130307  87.0364 274.5651 14.90179288102775
SNAP-3 EDDIE            
1 40972U 15058J   26095.85654655  .00082683  00000+0  14587-2 0  9990
2 40972  64.7484 342.6708 0033731  63.6713 296.7885 15.49278598107786
PROPCUBE 3              
1 40973U 15058K   26095.78173086  .00003997  00000+0  33882-3 0  9998
2 40973  64.7669 118.6659 0122663  88.6840 272.8322 14.93749636103982
BISONSAT                
1 40974U 15058L   26095.30869982  .00020200  00000+0  10161-2 0  9994
2 40974  64.7610  48.9709 0078636  79.0425 281.9533 15.14571729104574
SNAP-3 JIMI             
1 40975U 15058M   26095.41018751  .00007667  00000+0  53748-3 0  9998
2 40975  64.7641  89.8898 0104788  85.2917 276.0158 15.01482733103293
PROPCUBE 1 (FLORA)      
1 40976U 15058N   26095.59278689  .00003099  00000+0  29797-3 0  9998
2 40976  64.7742 160.1516 0129274  89.4075 272.1847 14.88833435105459
SINOD-D 3               
1 40977U 15058P   26095.53250276  .00003986  00000+0  34442-3 0  9993
2 40977  64.7714 142.5957 0117682  87.1517 274.3058 14.93467617103905
