[{"OBJECT_NAME":"AEROCUBE 6B","OBJECT_ID":"2014-033AN","EPOCH":"2026-04-05T09:42:40.546080","MEAN_MOTION":14.98669816,"ECCENTRICITY":0.00362929,"INCLINATION":97.7145,"RA_OF_ASC_NODE":262.8393,"ARG_OF_PERICENTER":248.696,"MEAN_ANOMALY":111.0386,"EPHEMERIS_TYPE":0,"CLASSIFICATION_TYPE":"U","NORAD_CAT_ID":40046,"ELEMENT_SET_NO":999,"REV_AT_EPOCH":63585,"BSTAR":0.00083713227,"MEAN_MOTION_DOT":0.00010142,"MEAN_MOTION_DDOT":0},{"OBJECT_NAME":"CANX-4","OBJECT_ID":"2014-034C","EPOCH":"2026-04-05T14:22:48.902304","MEAN_MOTION":14.81133972,"ECCENTRICITY":0.0011589,"INCLINATION":98.3227,"RA_OF_ASC_NODE":328.2127,"ARG_OF_PERICENTER":242.184,"MEAN_ANOMALY":117.8197,"EPHEMERIS_TYPE":0,"CLASSIFICATION_TYPE":"U","NORAD_CAT_ID":40055,"ELEMENT_SET_NO":999,"REV_AT_EPOCH":63378,"BSTAR":0.00020752,"MEAN_MOTION_DOT":1.557e-5,"MEAN_MOTION_DDOT":0},{"OBJECT_NAME":"CANX-5","OBJECT_ID":"2014-034D","EPOCH":"2026-04-05T14:21:45.648000","MEAN_MOTION":14.81150832,"ECCENTRICITY":0.001161,"INCLINATION":98.3229,"RA_OF_ASC_NODE":328.2512,"ARG_OF_PERICENTER":242.4079,"MEAN_ANOMALY":117.5953,"EPHEMERIS_TYPE":0,"CLASSIFICATION_TYPE":"U","NORAD_CAT_ID":40056,"ELEMENT_SET_NO":999,"REV_AT_EPOCH":62459,"BSTAR":0.00020785,"MEAN_MOTION_DOT":1.56e-5,"MEAN_MOTION_DDOT":0},{"OBJECT_NAME":"UKUBE-1","OBJECT_ID":"2014-037F","EPOCH":"2026-04-05T21:09:05.187456","MEAN_MOTION":15.12420643,"ECCENTRICITY":0.0002929,"INCLINATION":98.4248,"RA_OF_ASC_NODE":91.6279,"ARG_OF_PERICENTER":73.305,"MEAN_ANOMALY":286.85,"EPHEMERIS_TYPE":0,"CLASSIFICATION_TYPE":"U","NORAD_CAT_ID":40074,"ELEMENT_SET_NO":999,"REV_AT_EPOCH":63762,"BSTAR":0.00065906,"MEAN_MOTION_DOT":0.00011383,"MEAN_MOTION_DDOT":0},{"OBJECT_NAME":"BRITE-PL2 (HEWELIUSZ)","OBJECT_ID":"2014-049B","EPOCH":"2026-04-05T20:39:17.841888","MEAN_MOTION":14.9433274,"ECCENTRICITY":0.0013735,"INCLINATION":97.9007,"RA_OF_ASC_NODE":207.353,"ARG_OF_PERICENTER":356.22,"MEAN_ANOMALY":3.8914,"EPHEMERIS_TYPE":0,"CLASSIFICATION_TYPE":"U","NORAD_CAT_ID":40119,"ELEMENT_SET_NO":999,"REV_AT_EPOCH":63064,"BSTAR":0.00032759,"MEAN_MOTION_DOT":3.469e-5,"MEAN_MOTION_DDOT":0},{"OBJECT_NAME":"AEROCUBE 5C","OBJECT_ID":"2015-058B","EPOCH":"2026-04-05T11:24:07.109856","MEAN_MOTION":14.91041203,"ECCENTRICITY":0.01296738,"INCLINATION":64.7657,"RA_OF_ASC_NODE":128.7187,"ARG_OF_PERICENTER":91.8408,"MEAN_ANOMALY":269.7561,"EPHEMERIS_TYPE":0,"CLASSIFICATION_TYPE":"U","NORAD_CAT_ID":40965,"ELEMENT_SET_NO":999,"REV_AT_EPOCH":35481,"BSTAR":0.00028242149,"MEAN_MOTION_DOT":3.115e-5,"MEAN_MOTION_DDOT":0},{"OBJECT_NAME":"AEROCUBE 7","OBJECT_ID":"2015-058C","EPOCH":"2026-04-05T11:23:21.565824","MEAN_MOTION":14.95142609,"ECCENTRICITY":0.01195624,"INCLINATION":64.7608,"RA_OF_ASC_NODE":112.4628,"ARG_OF_PERICENTER":90.7241,"MEAN_ANOMALY":270.7574,"EPHEMERIS_TYPE":0,"CLASSIFICATION_TYPE":"U","NORAD_CAT_ID":40966,"ELEMENT_SET_NO":999,"REV_AT_EPOCH":35508,"BSTAR":0.00038390513,"MEAN_MOTION_DOT":4.698e-5,"MEAN_MOTION_DDOT":0},{"OBJECT_NAME":"FOX-1A (AO-85)","OBJECT_ID":"2015-058D","EPOCH":"2026-04-05T13:34:43.341024","MEAN_MOTION":14.9054743,"ECCENTRICITY":0.0128307,"INCLINATION":64.7743,"RA_OF_ASC_NODE":144.5904,"ARG_OF_PERICENTER":85.1207,"MEAN_ANOMALY":276.454,"EPHEMERIS_TYPE":0,"CLASSIFICATION_TYPE":"U","NORAD_CAT_ID":40967,"ELEMENT_SET_NO":999,"REV_AT_EPOCH":10274,"BSTAR":0.00028427,"MEAN_MOTION_DOT":3.083e-5,"MEAN_MOTION_DDOT":0},{"OBJECT_NAME":"SINOD-D 1","OBJECT_ID":"2015-058E","EPOCH":"2026-04-05T19:05:19.038336","MEAN_MOTION":14.95313665,"ECCENTRICITY":0.0116772,"INCLINATION":64.7736,"RA_OF_ASC_NODE":125.5086,"ARG_OF_PERICENTER":82.0434,"MEAN_ANOMALY":279.3914,"EPHEMERIS_TYPE":0,"CLASSIFICATION_TYPE":"U","NORAD_CAT_ID":40968,"ELEMENT_SET_NO":999,"REV_AT_EPOCH":10583,"BSTAR":0.00037085,"MEAN_MOTION_DOT":4.522e-5,"MEAN_MOTION_DDOT":0},{"OBJECT_NAME":"SNAP-3 ALICE","OBJECT_ID":"2015-058G","EPOCH":"2026-04-05T21:04:37.095168","MEAN_MOTION":15.48238555,"ECCENTRICITY":0.0032871,"INCLINATION":64.7562,"RA_OF_ASC_NODE":351.3776,"ARG_OF_PERICENTER":59.0505,"MEAN_ANOMALY":301.3859,"EPHEMERIS_TYPE":0,"CLASSIFICATION_TYPE":"U","NORAD_CAT_ID":40970,"ELEMENT_SET_NO":999,"REV_AT_EPOCH":10565,"BSTAR":0.0016167,"MEAN_MOTION_DOT":0.00088321,"MEAN_MOTION_DDOT":0},{"OBJECT_NAME":"LMRST-SAT","OBJECT_ID":"2015-058H","EPOCH":"2026-04-05T20:07:18.948864","MEAN_MOTION":14.90179288,"ECCENTRICITY":0.0130307,"INCLINATION":64.7746,"RA_OF_ASC_NODE":139.9468,"ARG_OF_PERICENTER":87.0364,"MEAN_ANOMALY":274.5651,"EPHEMERIS_TYPE":0,"CLASSIFICATION_TYPE":"U","NORAD_CAT_ID":40971,"ELEMENT_SET_NO":999,"REV_AT_EPOCH":10277,"BSTAR":0.00026981,"MEAN_MOTION_DOT":2.902e-5,"MEAN_MOTION_DDOT":0},{"OBJECT_NAME":"SNAP-3 EDDIE","OBJECT_ID":"2015-058J","EPOCH":"2026-04-05T20:33:25.621920","MEAN_MOTION":15.49278598,"ECCENTRICITY":0.0033731,"INCLINATION":64.7484,"RA_OF_ASC_NODE":342.6708,"ARG_OF_PERICENTER":63.6713,"MEAN_ANOMALY":296.7885,"EPHEMERIS_TYPE":0,"CLASSIFICATION_TYPE":"U","NORAD_CAT_ID":40972,"ELEMENT_SET_NO":999,"REV_AT_EPOCH":10778,"BSTAR":0.0014587,"MEAN_MOTION_DOT":0.00082683,"MEAN_MOTION_DDOT":0},{"OBJECT_NAME":"PROPCUBE 3","OBJECT_ID":"2015-058K","EPOCH":"2026-04-05T18:45:41.546304","MEAN_MOTION":14.93749636,"ECCENTRICITY":0.0122663,"INCLINATION":64.7669,"RA_OF_ASC_NODE":118.6659,"ARG_OF_PERICENTER":88.684,"MEAN_ANOMALY":272.8322,"EPHEMERIS_TYPE":0,"CLASSIFICATION_TYPE":"U","NORAD_CAT_ID":40973,"ELEMENT_SET_NO":999,"REV_AT_EPOCH":10398,"BSTAR":0.00033882,"MEAN_MOTION_DOT":3.997e-5,"MEAN_MOTION_DDOT":0},{"OBJECT_NAME":"BISONSAT","OBJECT_ID":"2015-058L","EPOCH":"2026-04-05T07:24:31.664448","MEAN_MOTION":15.14571729,"ECCENTRICITY":0.0078636,"INCLINATION":64.761,"RA_OF_ASC_NODE":48.9709,"ARG_OF_PERICENTER":79.0425,"MEAN_ANOMALY":281.9533,"EPHEMERIS_TYPE":0,"CLASSIFICATION_TYPE":"U","NORAD_CAT_ID":40974,"ELEMENT_SET_NO":999,"REV_AT_EPOCH":10457,"BSTAR":0.0010161,"MEAN_MOTION_DOT":0.000202,"MEAN_MOTION_DDOT":0},{"OBJECT_NAME":"SNAP-3 JIMI","OBJECT_ID":"2015-058M","EPOCH":"2026-04-05T09:50:40.200864","MEAN_MOTION":15.01482733,"ECCENTRICITY":0.01047884,"INCLINATION":64.7641,"RA_OF_ASC_NODE":89.8898,"ARG_OF_PERICENTER":85.2917,"MEAN_ANOMALY":276.0158,"EPHEMERIS_TYPE":0,"CLASSIFICATION_TYPE":"U","NORAD_CAT_ID":40975,"ELEMENT_SET_NO":999,"REV_AT_EPOCH":10329,"BSTAR":0.00053748381,"MEAN_MOTION_DOT":7.667e-5,"MEAN_MOTION_DDOT":0},{"OBJECT_NAME":"PROPCUBE 1 (FLORA)","OBJECT_ID":"2015-058N","EPOCH":"2026-04-05T14:13:36.787296","MEAN_MOTION":14.88833435,"ECCENTRICITY":0.0129274,"INCLINATION":64.7742,"RA_OF_ASC_NODE":160.1516,"ARG_OF_PERICENTER":89.4075,"MEAN_ANOMALY":272.1847,"EPHEMERIS_TYPE":0,"CLASSIFICATION_TYPE":"U","NORAD_CAT_ID":40976,"ELEMENT_SET_NO":999,"REV_AT_EPOCH":10545,"BSTAR":0.00029797,"MEAN_MOTION_DOT":3.099e-5,"MEAN_MOTION_DDOT":0},{"OBJECT_NAME":"SINOD-D 3","OBJECT_ID":"2015-058P","EPOCH":"2026-04-05T12:46:48.238464","MEAN_MOTION":14.93467617,"ECCENTRICITY":0.01176823,"INCLINATION":64.7714,"RA_OF_ASC_NODE":142.5957,"ARG_OF_PERICENTER":87.1517,"MEAN_ANOMALY":274.3058,"EPHEMERIS_TYPE":0,"CLASSIFICATION_TYPE":"U","NORAD_CAT_ID":40977,"ELEMENT_SET_NO":999,"REV_AT_EPOCH":10390,"BSTAR":0.00034441825,"MEAN_MOTION_DOT":3.986e-5,"MEAN_MOTION_DDOT":0}]
